KUIPER-00035            
1 63748U 25088AA  25221.25002315 -.00441638  00000+0 -47684-1 0  9998
2 63748  51.9006 333.7604 0005338 102.7583  55.6511 14.90106212 16042
KUIPER-00037            
1 63749U 25088AB  25221.25002315  .00022237  00000+0  22331-2 0  9990
2 63749  51.8939 332.8607 0005380  42.7504  74.7538 14.91182001 16843
KUIPER-00038            
1 63750U 25088AC  25221.25002315 -.00799471  00000+0 -30409-1 0  9999
2 63750  51.8776 324.0013 0005389 104.8993  89.1548 15.28751825 15969
KUIPER-00039            
1 64500U 25134A   25220.87711834  .00030808  00000+0  89090-3 0  9997
2 64500  51.8680 107.3299 0007251 277.0409  82.9752 15.35335001  8377
KUIPER-00040            
1 64501U 25134B   25220.91667824 -.00013390  00000+0 -69347-3 0  9994
2 64501  51.8783 109.2866 0013128 286.5097 300.4593 15.14894011  4792
KUIPER-00041            
1 64502U 25134C   25221.25002315 -.00674587  00000+0 -41180-1 0  9995
2 64502  51.8781 108.0921 0009099 287.1149 104.2543 15.12206429  7939
KUIPER-00042            
1 64503U 25134D   25220.91667824 -.00208993  00000+0 -10146-1 0  9992
2 64503  51.8788 108.2127 0010881 287.0672 123.9927 15.18867573  7908
KUIPER-00043            
1 64504U 25134E   25221.07684036  .00037830  00000+0  11072-2 0  9993
2 64504  51.8706 106.4240 0008011 280.2272  79.7810 15.34850957  8320
